CCSDS_OMM_VERS = 2.0
CREATION_DATE  = 
ORIGINATOR     = 

OBJECT_NAME    = STARLINK-36119
OBJECT_ID      = 2026-020C
CENTER_NAME    = EARTH
REF_FRAME      = TEME
TIME_SYSTEM    = UTC
MEAN_ELEMENT_THEORY = SGP/SGP4

EPOCH          = 2026-02-18T00:54:36.108288
MEAN_MOTION    = 15.76432021
ECCENTRICITY   = .0001947
INCLINATION    = 42.9969
RA_OF_ASC_NODE = 261.6876
ARG_OF_PERICENTER = 258.7078
MEAN_ANOMALY   = 101.3573

EPHEMERIS_TYPE = 0
CLASSIFICATION_TYPE = U
NORAD_CAT_ID   = 67619
ELEMENT_SET_NO = 999
REV_AT_EPOCH   = 298
BSTAR          = .14320102E-2
MEAN_MOTION_DOT = .240127E-2
MEAN_MOTION_DDOT = 0

CCSDS_OMM_VERS = 2.0
CREATION_DATE  = 
ORIGINATOR     = 

OBJECT_NAME    = STARLINK-36607
OBJECT_ID      = 2026-020D
CENTER_NAME    = EARTH
REF_FRAME      = TEME
TIME_SYSTEM    = UTC
MEAN_ELEMENT_THEORY = SGP/SGP4

EPOCH          = 2026-02-17T22:41:59.793216
MEAN_MOTION    = 15.82415698
ECCENTRICITY   = .0002739
INCLINATION    = 42.9966
RA_OF_ASC_NODE = 261.8408
ARG_OF_PERICENTER = 285.0564
MEAN_ANOMALY   = 75.0004

EPHEMERIS_TYPE = 0
CLASSIFICATION_TYPE = U
NORAD_CAT_ID   = 67620
ELEMENT_SET_NO = 999
REV_AT_EPOCH   = 297
BSTAR          = .27681E-2
MEAN_MOTION_DOT = .639263E-2
MEAN_MOTION_DDOT = 0

CCSDS_OMM_VERS = 2.0
CREATION_DATE  = 
ORIGINATOR     = 

OBJECT_NAME    = STARLINK-36615
OBJECT_ID      = 2026-020E
CENTER_NAME    = EARTH
REF_FRAME      = TEME
TIME_SYSTEM    = UTC
MEAN_ELEMENT_THEORY = SGP/SGP4

EPOCH          = 2026-02-19T00:28:21.929664
MEAN_MOTION    = 15.82114142
ECCENTRICITY   = .0001889
INCLINATION    = 42.9976
RA_OF_ASC_NODE = 255.2671
ARG_OF_PERICENTER = 257.8287
MEAN_ANOMALY   = 102.2374

EPHEMERIS_TYPE = 0
CLASSIFICATION_TYPE = U
NORAD_CAT_ID   = 67621
ELEMENT_SET_NO = 999
REV_AT_EPOCH   = 314
BSTAR          = .14066998E-2
MEAN_MOTION_DOT = .307854E-2
MEAN_MOTION_DDOT = 0

CCSDS_OMM_VERS = 2.0
CREATION_DATE  = 
ORIGINATOR     = 

OBJECT_NAME    = STARLINK-36614
OBJECT_ID      = 2026-020F
CENTER_NAME    = EARTH
REF_FRAME      = TEME
TIME_SYSTEM    = UTC
MEAN_ELEMENT_THEORY = SGP/SGP4

EPOCH          = 2026-02-18T23:36:51.843168
MEAN_MOTION    = 15.76411350
ECCENTRICITY   = .0001642
INCLINATION    = 42.9976
RA_OF_ASC_NODE = 255.8760
ARG_OF_PERICENTER = 270.6542
MEAN_ANOMALY   = 89.4139

EPHEMERIS_TYPE = 0
CLASSIFICATION_TYPE = U
NORAD_CAT_ID   = 67622
ELEMENT_SET_NO = 999
REV_AT_EPOCH   = 313
BSTAR          = .78726108E-3
MEAN_MOTION_DOT = .129952E-2
MEAN_MOTION_DDOT = 0

CCSDS_OMM_VERS = 2.0
CREATION_DATE  = 
ORIGINATOR     = 

OBJECT_NAME    = STARLINK-36600
OBJECT_ID      = 2026-020G
CENTER_NAME    = EARTH
REF_FRAME      = TEME
TIME_SYSTEM    = UTC
MEAN_ELEMENT_THEORY = SGP/SGP4

EPOCH          = 2026-02-19T01:11:15.423648
MEAN_MOTION    = 15.76400731
ECCENTRICITY   = .00016594
INCLINATION    = 42.9970
RA_OF_ASC_NODE = 255.5084
ARG_OF_PERICENTER = 257.7525
MEAN_ANOMALY   = 102.3159

EPHEMERIS_TYPE = 0
CLASSIFICATION_TYPE = U
NORAD_CAT_ID   = 67623
ELEMENT_SET_NO = 999
REV_AT_EPOCH   = 314
BSTAR          = .19355587E-2
MEAN_MOTION_DOT = .327694E-2
MEAN_MOTION_DDOT = 0

CCSDS_OMM_VERS = 2.0
CREATION_DATE  = 
ORIGINATOR     = 

OBJECT_NAME    = STARLINK-36439
OBJECT_ID      = 2026-020H
CENTER_NAME    = EARTH
REF_FRAME      = TEME
TIME_SYSTEM    = UTC
MEAN_ELEMENT_THEORY = SGP/SGP4

EPOCH          = 2026-02-19T00:55:29.278848
MEAN_MOTION    = 15.76409689
ECCENTRICITY   = .00021263
INCLINATION    = 42.9973
RA_OF_ASC_NODE = 255.4197
ARG_OF_PERICENTER = 249.1230
MEAN_ANOMALY   = 110.9412

EPHEMERIS_TYPE = 0
CLASSIFICATION_TYPE = U
NORAD_CAT_ID   = 67624
ELEMENT_SET_NO = 999
REV_AT_EPOCH   = 314
BSTAR          = .72577469E-3
MEAN_MOTION_DOT = .119613E-2
MEAN_MOTION_DDOT = 0

CCSDS_OMM_VERS = 2.0
CREATION_DATE  = 
ORIGINATOR     = 

OBJECT_NAME    = STARLINK-36438
OBJECT_ID      = 2026-020J
CENTER_NAME    = EARTH
REF_FRAME      = TEME
TIME_SYSTEM    = UTC
MEAN_ELEMENT_THEORY = SGP/SGP4

EPOCH          = 2026-02-19T01:04:57.054720
MEAN_MOTION    = 15.76384750
ECCENTRICITY   = .00015275
INCLINATION    = 42.9968
RA_OF_ASC_NODE = 255.4731
ARG_OF_PERICENTER = 257.8553
MEAN_ANOMALY   = 102.2145

EPHEMERIS_TYPE = 0
CLASSIFICATION_TYPE = U
NORAD_CAT_ID   = 67625
ELEMENT_SET_NO = 999
REV_AT_EPOCH   = 314
BSTAR          = .18642054E-2
MEAN_MOTION_DOT = .31489E-2
MEAN_MOTION_DDOT = 0

CCSDS_OMM_VERS = 2.0
CREATION_DATE  = 
ORIGINATOR     = 

OBJECT_NAME    = STARLINK-36436
OBJECT_ID      = 2026-020K
CENTER_NAME    = EARTH
REF_FRAME      = TEME
TIME_SYSTEM    = UTC
MEAN_ELEMENT_THEORY = SGP/SGP4

EPOCH          = 2026-02-17T22:36:15.858144
MEAN_MOTION    = 15.82057753
ECCENTRICITY   = .0002173
INCLINATION    = 42.9968
RA_OF_ASC_NODE = 261.8078
ARG_OF_PERICENTER = 315.8447
MEAN_ANOMALY   = 44.2251

EPHEMERIS_TYPE = 0
CLASSIFICATION_TYPE = U
NORAD_CAT_ID   = 67626
ELEMENT_SET_NO = 999
REV_AT_EPOCH   = 297
BSTAR          = .19514E-2
MEAN_MOTION_DOT = .432403E-2
MEAN_MOTION_DDOT = 0

CCSDS_OMM_VERS = 2.0
CREATION_DATE  = 
ORIGINATOR     = 

OBJECT_NAME    = STARLINK-36502
OBJECT_ID      = 2026-020L
CENTER_NAME    = EARTH
REF_FRAME      = TEME
TIME_SYSTEM    = UTC
MEAN_ELEMENT_THEORY = SGP/SGP4

EPOCH          = 2026-02-19T00:22:47.940960
MEAN_MOTION    = 15.82074790
ECCENTRICITY   = .00015823
INCLINATION    = 42.9969
RA_OF_ASC_NODE = 255.2379
ARG_OF_PERICENTER = 312.4813
MEAN_ANOMALY   = 47.5925

EPHEMERIS_TYPE = 0
CLASSIFICATION_TYPE = U
NORAD_CAT_ID   = 67627
ELEMENT_SET_NO = 999
REV_AT_EPOCH   = 314
BSTAR          = .98897535E-3
MEAN_MOTION_DOT = .213511E-2
MEAN_MOTION_DDOT = 0

CCSDS_OMM_VERS = 2.0
CREATION_DATE  = 
ORIGINATOR     = 

OBJECT_NAME    = STARLINK-36532
OBJECT_ID      = 2026-020M
CENTER_NAME    = EARTH
REF_FRAME      = TEME
TIME_SYSTEM    = UTC
MEAN_ELEMENT_THEORY = SGP/SGP4

EPOCH          = 2026-02-19T00:19:58.044000
MEAN_MOTION    = 15.82087004
ECCENTRICITY   = .00018445
INCLINATION    = 42.9974
RA_OF_ASC_NODE = 255.2187
ARG_OF_PERICENTER = 262.9234
MEAN_ANOMALY   = 97.1428

EPHEMERIS_TYPE = 0
CLASSIFICATION_TYPE = U
NORAD_CAT_ID   = 67628
ELEMENT_SET_NO = 999
REV_AT_EPOCH   = 314
BSTAR          = .13219909E-2
MEAN_MOTION_DOT = .288256E-2
MEAN_MOTION_DDOT = 0

CCSDS_OMM_VERS = 2.0
CREATION_DATE  = 
ORIGINATOR     = 

OBJECT_NAME    = STARLINK-36367
OBJECT_ID      = 2026-020N
CENTER_NAME    = EARTH
REF_FRAME      = TEME
TIME_SYSTEM    = UTC
MEAN_ELEMENT_THEORY = SGP/SGP4

EPOCH          = 2026-02-19T06:00:02.000160
MEAN_MOTION    = 15.76380374
ECCENTRICITY   = .0001759
INCLINATION    = 42.9986
RA_OF_ASC_NODE = 253.9792
ARG_OF_PERICENTER = 272.7936
MEAN_ANOMALY   = 271.1053

EPHEMERIS_TYPE = 0
CLASSIFICATION_TYPE = U
NORAD_CAT_ID   = 67629
ELEMENT_SET_NO = 999
REV_AT_EPOCH   = 442
BSTAR          = -.16392814E-3
MEAN_MOTION_DOT = -.27113E-3
MEAN_MOTION_DDOT = 0

CCSDS_OMM_VERS = 2.0
CREATION_DATE  = 
ORIGINATOR     = 

OBJECT_NAME    = STARLINK-36416
OBJECT_ID      = 2026-020P
CENTER_NAME    = EARTH
REF_FRAME      = TEME
TIME_SYSTEM    = UTC
MEAN_ELEMENT_THEORY = SGP/SGP4

EPOCH          = 2026-02-19T01:01:47.975232
MEAN_MOTION    = 15.76394589
ECCENTRICITY   = .00013634
INCLINATION    = 42.9968
RA_OF_ASC_NODE = 255.4546
ARG_OF_PERICENTER = 280.5947
MEAN_ANOMALY   = 79.4769

EPHEMERIS_TYPE = 0
CLASSIFICATION_TYPE = U
NORAD_CAT_ID   = 67630
ELEMENT_SET_NO = 999
REV_AT_EPOCH   = 314
BSTAR          = .15404975E-2
MEAN_MOTION_DOT = .258491E-2
MEAN_MOTION_DDOT = 0

